[{"OBJECT_NAME":"STARLINK-1686","OBJECT_ID":"2020-062D","EPOCH":"2026-03-09T22:36:24.211296","MEAN_MOTION":15.70442116,"ECCENTRICITY":0.00055257,"INCLINATION":53.0437,"RA_OF_ASC_NODE":313.2055,"ARG_OF_PERICENTER":281.1531,"MEAN_ANOMALY":78.8864,"EPHEMERIS_TYPE":0,"CLASSIFICATION_TYPE":"U","NORAD_CAT_ID":46328,"ELEMENT_SET_NO":999,"REV_AT_EPOCH":30522,"BSTAR":0.00099254031,"MEAN_MOTION_DOT":0.0012535,"MEAN_MOTION_DDOT":0},{"OBJECT_NAME":"TIGER-6","OBJECT_ID":"2023-174S","EPOCH":"2026-03-09T17:36:28.852992","MEAN_MOTION":15.68857868,"ECCENTRICITY":0.0003121,"INCLINATION":97.3904,"RA_OF_ASC_NODE":161.9275,"ARG_OF_PERICENTER":155.9023,"MEAN_ANOMALY":204.2385,"EPHEMERIS_TYPE":0,"CLASSIFICATION_TYPE":"U","NORAD_CAT_ID":58272,"ELEMENT_SET_NO":999,"REV_AT_EPOCH":13064,"BSTAR":0.00098002434,"MEAN_MOTION_DOT":0.00113437,"MEAN_MOTION_DDOT":0}]
